TIANMU-1 17             
1 58702U 24004C   24127.83027724  .00006771  00000+0  37209-3 0  9995
2 58702  97.4591 309.7451 0007933 185.5753 174.5391 15.14394758 18505
TIANMU-1 18             
1 58703U 24004D   24127.81464971  .00006149  00000+0  33781-3 0  9993
2 58703  97.4605 309.7902 0007404 175.0303 185.1003 15.14444516 18507
INSAT-3DS               
1 58990U 24033A   24127.64716355 -.00000166  00000+0  00000+0 0  9998
2 58990   0.0923  88.4398 0011727   0.1810  92.3594  1.00271034  1084
METEOR-M2 4             
1 59051U 24039A   24127.83803713  .00000075  00000+0  53371-4 0  9991
2 59051  98.5948  90.7567 0005967 240.9858 119.0723 14.22219145  9612
STARLINK-11087 [DTC]    
1 59421U 24065A   24127.83178445 -.00006783  00000+0 -47469-4 0  9993
2 59421  53.1565 175.1901 0000585  73.5460 286.5623 15.71452335  5862
STARLINK-11090 [DTC]    
1 59422U 24065B   24127.33335648 -.00866128  00000+0 -70823-2 0  9994
2 59422  53.1573 177.6168 0000917  59.6503  19.0006 15.72367632  5833
STARLINK-11093 [DTC]    
1 59423U 24065C   24127.44494358  .00005217  00000+0  44660-4 0  9995
2 59423  53.1568 177.0426 0000961 108.0953 252.0170 15.71441182  5817
STARLINK-11083 [DTC]    
1 59424U 24065D   24127.44229582 -.00008627  00000+0 -61620-4 0  9996
2 59424  53.1562 177.0286 0001254  89.5857 270.5306 15.71457570  5766
STARLINK-11085 [DTC]    
1 59425U 24065E   24127.37605087  .00023909  00000+0  18719-3 0  9995
2 59425  53.1562 177.3287 0001285  96.6018 263.5147 15.71502742  5759
STARLINK-11089 [DTC]    
1 59426U 24065F   24127.84782196  .00014844  00000+0  11824-3 0  9993
2 59426  53.1585 174.5801 0001986  56.8878 303.2331 15.71473284  5885
STARLINK-31757          
1 59427U 24065G   24127.42903559  .00113959  00000+0  24985-2 0  9994
2 59427  53.1577 181.2899 0001532  75.4465 284.6711 15.43226878  5760
STARLINK-31752          
1 59428U 24065H   24127.29111504 -.00405459  00000+0 -80438-2 0  9997
2 59428  53.1602 181.1346 0002667  71.1829 288.9468 15.47935851  5750
STARLINK-31773          
1 59429U 24065J   24127.58334491  .00019303  00000+0  49181-3 0  9990
2 59429  53.1596 180.4358 0001260 106.0302  93.2616 15.39589940  5869
STARLINK-31772          
1 59430U 24065K   24127.58334491 -.00037473  00000+0 -93141-3 0  9997
2 59430  53.1582 180.0756 0001722  69.2813 310.2665 15.39620048  5876
STARLINK-31613          
1 59431U 24065L   24127.58334491 -.00016754  00000+0 -40986-3 0  9996
2 59431  53.1593 180.3324 0001394  74.0264 176.7520 15.39613091  5877
STARLINK-31780          
1 59432U 24065M   24127.91668981 -.00110569  00000+0 -27908-2 0  9995
2 59432  53.1586 178.4011 0002236  94.9328  24.7831 15.39656572  5833
STARLINK-31740          
1 59433U 24065N   24127.58334491  .00033694  00000+0  85053-3 0  9992
2 59433  53.1590 180.5393 0001152  84.8461  62.9965 15.39551267  5891
STARLINK-31580          
1 59434U 24065P   24127.91668981 -.00000246  00000+0  38494-5 0  9991
2 59434  53.1595 178.9148 0001870  82.9030 139.2566 15.39598497  5839
STARLINK-31696          
1 59435U 24065Q   24127.85495250  .00004482  00000+0  10991-3 0  9997
2 59435  53.1586 178.9626 0000539  54.9901 305.1156 15.42840755  5827
STARLINK-31700          
1 59436U 24065R   24127.91668981 -.00090863  00000+0 -22846-2 0  9999
2 59436  53.1580 178.5512 0002537  32.1688  12.0727 15.39670772  5837
STARLINK-31706          
1 59437U 24065S   24127.58334491 -.00040114  00000+0 -99556-3 0  9996
2 59437  53.1594 180.3842 0002288  61.5002 163.4077 15.39695573  5867
STARLINK-31711          
1 59438U 24065T   24127.84568624  .00011163  00000+0  25966-3 0  9997
2 59438  53.1593 178.9091 0001500  94.7231 265.3946 15.42843769  5823
STARLINK-31708          
1 59439U 24065U   24127.58334491  .00042344  00000+0  10636-2 0  9994
2 59439  53.1584 180.0210 0002190  83.9219 323.2194 15.39593559  5861
STARLINK-31682          
1 59440U 24065V   24127.41990394  .00017707  00000+0  13210-3 0  9995
2 59440  53.1552 176.8858 0000686  51.3704 308.7377 15.72875210  5826
STARLINK-31693          
1 59441U 24065W   24127.63084118  .00055505  00000+0  13853-2 0  9998
2 59441  53.1578 179.6964 0002036  95.1836 264.9401 15.39667901  5805
TSAT-1A                 
1 59442U 24066A   24127.83107154  .00003187  00000+0  33299-3 0  9994
2 59442  45.6095 287.0301 0006123 252.7682 107.2527 14.91753535  4304
HAWK-8A                 
1 59443U 24066B   24127.55528668  .00002342  00000+0  24752-3 0  9997
2 59443  45.5998 288.3237 0006308 267.2619  92.7537 14.92227029  4263
CAPELLA-14 (ACADIA)     
1 59444U 24066C   24127.55408589  .00014850  00000+0  14460-2 0  9998
2 59444  45.6079 288.3323 0007383 274.1763  85.8272 14.92452184  4252
HAWK-8B                 
1 59445U 24066D   24127.55638225  .00002587  00000+0  27088-3 0  9996
2 59445  45.6199 288.3789 0006525 265.1280  94.8853 14.92269373  4254
HAWK-9A                 
1 59446U 24066E   24127.82142273  .00002249  00000+0  23763-3 0  9991
2 59446  45.6106 286.9696 0006183 269.5900  90.4270 14.92382127  4293
QPS-SAR-7 (TSUKUYOMI-II)
1 59447U 24066F   24127.81914817  .00007085  00000+0  70095-3 0  9995
2 59447  45.6094 286.9526 0005295 273.4877  86.5396 14.92500438  4294
HAWK-9C                 
1 59448U 24066G   24127.55454457  .00002044  00000+0  21819-3 0  9996
2 59448  45.6003 288.3339 0006615 261.8427  98.1701 14.92312917  4250
HAWK-8C                 
1 59449U 24066H   24127.82256445  .00001890  00000+0  20437-3 0  9997
2 59449  45.6096 286.9668 0005048 277.9800  82.0505 14.92118611  4297
HAWK-9B                 
1 59450U 24066J   24127.55428646  .00002258  00000+0  23896-3 0  9994
2 59450  45.6235 288.3582 0005865 262.8830  97.1382 14.92293931  4253
CENTAURI-6              
1 59451U 24066K   24127.47826803  .00006560  00000+0  64571-3 0  9998
2 59451  45.6057 288.6060 0005959 289.2074  70.8160 14.92798842  4250
425SAT-1                
1 59452U 24066L   24127.81106464  .00007573  00000+0  61918-3 0  9998
2 59452  45.4141 284.2978 0005507 163.9700 196.1353 14.99902710  4317
STARLINK-31617          
1 59455U 24068A   24127.58334491 -.02228193  00000+0 -54701-1 0  9997
2 59455  42.9994 262.1961 0001239 276.6981  76.8369 15.43197097  5435
STARLINK-31622          
1 59456U 24068B   24127.64446022  .00011396  00000+0  19948-3 0  9996
2 59456  42.9979 261.7722 0001314 277.3541  82.7170 15.50623188  5375
STARLINK-31319          
1 59457U 24068C   24127.91668981  .00055300  00000+0  13274-2 0  9995
2 59457  42.9996 260.4796 0001396 302.2948  17.5307 15.40565510  5417
STARLINK-31625          
1 59458U 24068D   24127.64410782  .00003679  00000+0  68404-4 0  9999
2 59458  42.9993 261.7713 0001386 249.7160 110.3551 15.50620059  5388
STARLINK-31631          
1 59459U 24068E   24127.67580418  .00005081  00000+0  12874-3 0  9995
2 59459  43.0001 262.0187 0001316 284.5390  75.5320 15.40718271  5373
STARLINK-31620          
1 59460U 24068F   24127.58334491 -.00007767  00000+0 -17892-3 0  9995
2 59460  42.9995 262.3101 0001754 271.3577  34.7711 15.40689759  5437
STARLINK-31482          
1 59461U 24068G   24127.91668981 -.01698867  00000+0 -18720-1 0  9994
2 59461  42.9995 256.5762 0001696 287.9451 165.8238 15.65515853  5457
STARLINK-31511          
1 59462U 24068H   24127.91668981 -.02150570  00000+0 -51258-1 0  9993
2 59462  43.0002 260.1895 0001585 287.2980 151.4600 15.44512780  5417
STARLINK-31364          
1 59463U 24068J   24127.91668981  .00181551  00000+0  42624-2 0  9991
2 59463  42.9997 260.5380 0001432 274.8420  20.2205 15.40617557  5412
STARLINK-31597          
1 59464U 24068K   24127.91668981  .00113305  00000+0  19143-2 0  9994
2 59464  43.0002 260.1494 0001263 288.8013 166.0687 15.50506154  5356
STARLINK-31621          
1 59465U 24068L   24127.91668981 -.00168743  00000+0 -29331-2 0  9993
2 59465  43.0002 260.1453 0001879 304.8440 151.9501 15.50575153  5418
STARLINK-31462          
1 59466U 24068M   24127.91668981 -.00118316  00000+0 -28670-2 0  9990
2 59466  43.0001 259.8277 0001913 270.1581 311.0617 15.40721112  5422
STARLINK-31592          
1 59467U 24068N   24126.67482000  .00004226  00000+0  77819-4 0  9992
2 59467  42.9969 267.3975 0000964 331.9899  28.0910 15.50576908  5227
STARLINK-31267          
1 59468U 24068P   24127.58334491 -.00032122  00000+0 -76488-3 0  9992
2 59468  42.9996 262.2769 0001274 241.3869  77.1782 15.40702715  5430
STARLINK-31381          
1 59469U 24068Q   24127.58334491 -.00044478  00000+0 -10635-2 0  9991
2 59469  42.9996 262.2463 0002638 250.3934  80.6231 15.40702075  5369
STARLINK-31546          
1 59470U 24068R   24127.91668981 -.00062648  00000+0 -15049-2 0  9997
2 59470  42.9997 260.5051 0001667 287.2052  20.3290 15.40697052  5417
STARLINK-31575          
1 59471U 24068S   24127.58334491 -.00030852  00000+0 -73397-3 0  9990
2 59471  42.9995 262.3363 0001899 264.3135  29.3601 15.40711710  5364
STARLINK-31375          
1 59472U 24068T   24127.63897400  .00011766  00000+0  20587-3 0  9995
2 59472  42.9994 261.7262 0002025 272.0983  87.9645 15.50608123  5377
STARLINK-31610          
1 59473U 24068U   24127.63930296  .00006235  00000+0  11187-3 0  9998
2 59473  43.0002 261.7297 0001836 256.7291 103.3364 15.50615804  5373
STARLINK-31581          
1 59474U 24068V   24127.91668981  .00155640  00000+0  36689-2 0  9997
2 59474  42.9999 260.2935 0001810 264.2003 130.4637 15.40606799  5418
STARLINK-31566          
1 59475U 24068W   24127.63826599  .00019065  00000+0  32933-3 0  9997
2 59475  43.0000 261.7228 0001794 290.9898  69.0770 15.50637110  5376
STARLINK-31515          
1 59476U 24068X   24127.57352547  .00017462  00000+0  30247-3 0  9993
2 59476  42.9993 262.0965 0001453 293.8364  66.2343 15.50610737  5360
